FLOCK 4G-5              
1 62663U 25009BG  26068.45638436  .00011278  00000+0  40688-3 0  9997
2 62663  97.4058 151.2478 0002094 314.5072  45.5996 15.28679529 63699
STARLINK-33630          
1 63477U 25070T   26068.53279217  .00040201  00000+0  14629-2 0  9999
2 63477  42.9982 257.0985 0001498 254.5646 105.5040 15.27568423 52996
